IRIDIUM 116             
1 43072U 17083C   25248.07105358  .00000052  00000+0  11398-4 0  9997
2 43072  86.3904  81.1991 0002337  86.8145 273.3319 14.34217848403304
IRIDIUM 130             
1 43073U 17083D   25248.24864716 -.00000013  00000+0 -11575-4 0  9993
2 43073  86.3912  81.3725 0002382  92.4745 267.6724 14.34217253403272
IRIDIUM 151             
1 43074U 17083E   25248.08373974  .00000038  00000+0  65433-5 0  9995
2 43074  86.3907  81.2454 0002332  86.2952 273.8510 14.34217765403271
IRIDIUM 134             
1 43075U 17083F   25248.26133236  .00000010  00000+0 -34175-5 0  9991
2 43075  86.3908  81.1748 0002271  92.3163 267.8293 14.34217501403260
IRIDIUM 137             
1 43076U 17083G   25248.27401884  .00000007  00000+0 -46858-5 0  9997
2 43076  86.3910  81.2567 0002436  75.7987 284.3479 14.34217490403331
IRIDIUM 141             
1 43077U 17083H   25248.26767435  .00000014  00000+0 -21398-5 0  9994
2 43077  86.3905  81.1060 0001872  89.2887 270.8524 14.34217586403332
IRIDIUM 153             
1 43078U 17083J   25248.15008461  .00000089  00000+0  24701-4 0  9991
2 43078  86.3938  49.6089 0001823  99.3763 260.7639 14.34217360404426
IRIDIUM 131             
1 43079U 17083K   25248.25498944  .00000048  00000+0  10241-4 0  9991
2 43079  86.3910  81.2786 0002000  86.4081 273.7343 14.34217694403268
